      2.10          N: GNSS NAV DATA                        RINEX VERSION / TYPE
fic2rin                                 05/28/2022 00:17:33 PGM / RUN BY / DATE
                                                            END OF HEADER
12 22  5 27 18  0  0.0 -.221995171160D-03 -.579802872380D-11  .000000000000D+00
     .111000000000D+03  .105812500000D+03  .445482841863D-08  .186358167320D+00
     .519864261150D-05  .865522329696D-02  .591762363911D-05  .515379470253D+04
     .496800000000D+06 -.111758708954D-06  .580624304921D+00  .242143869400D-07
     .969487871427D+00  .272468750000D+03  .130180525810D+01 -.830427447779D-08
     .395016454021D-09  .100000000000D+01  .221100000000D+04  .000000000000D+00
     .240000000000D+01  .000000000000D+00 -.125728547573D-07  .111000000000D+03
     .489600000000D+06  .400000000000D+01
8  22  5 27 18  0  0.0 -.697108916938D-04 -.147792889038D-11  .000000000000D+00
     .930000000000D+02 -.425625000000D+02  .482305804258D-08 -.264943455396D+01
    -.225193798542D-05  .743797165342D-02  .223331153393D-05  .515376662827D+04
     .496800000000D+06 -.169500708580D-06  .153547712048D+01 -.150874257088D-06
     .963274960749D+00  .341000000000D+03  .170004940497D+00 -.834141888215D-08
    -.115004790411D-09  .100000000000D+01  .221100000000D+04  .000000000000D+00
     .340000000000D+01  .000000000000D+00  .512227416039D-08  .930000000000D+02
     .489600000000D+06  .400000000000D+01
7  22  5 27 18  0  0.0  .322208274156D-03  .000000000000D+00  .000000000000D+00
     .640000000000D+02  .285312500000D+02  .447768651362D-08  .793897843249D+00
     .158324837685D-05  .161455691559D-01  .110864639282D-04  .515366633606D+04
     .496800000000D+06 -.270083546638D-06 -.532103712690D+00  .912696123123D-07
     .950935981135D+00  .164437500000D+03 -.226618819204D+01 -.806926468869D-08
    -.433232331580D-09  .100000000000D+01  .221100000000D+04  .000000000000D+00
     .240000000000D+01  .000000000000D+00 -.111758708954D-07  .640000000000D+02
     .489600000000D+06  .400000000000D+01
15 22  5 27 18  0  0.0 -.579156912863D-04  .295585778076D-11  .000000000000D+00
     .670000000000D+02 -.177500000000D+02  .546129891359D-08  .267727560979D+01
    -.104494392872D-05  .140591912204D-01  .448152422905D-05  .515378356743D+04
     .496800000000D+06  .145286321640D-06 -.171288361161D+01 -.111758708954D-06
     .929900761071D+00  .274531250000D+03  .109541383501D+01 -.832463246864D-08
    -.156435087578D-09  .100000000000D+01  .221100000000D+04  .000000000000D+00
     .240000000000D+01  .000000000000D+00 -.107102096081D-07  .670000000000D+02
     .489600000000D+06  .400000000000D+01
21 22  5 27 18  0  0.0  .161228701472D-03  .113686837722D-12  .000000000000D+00
     .850000000000D+02 -.820000000000D+02  .427339228966D-08 -.248937939038D+01
    -.396184623241D-05  .242614950985D-01  .998750329018D-05  .515375437355D+04
     .496800000000D+06 -.130385160446D-07  .252426324106D+01  .413507223129D-06
     .960338582802D+00  .181656250000D+03 -.945189786674D+00 -.753245661420D-08
    -.119647840956D-09  .100000000000D+01  .221100000000D+04  .000000000000D+00
     .340000000000D+01  .000000000000D+00 -.102445483208D-07  .850000000000D+02
     .489600000000D+06  .400000000000D+01
26 22  5 27 18  0  0.0  .208485405892D-03  .250111042988D-11  .000000000000D+00
     .560000000000D+02  .104718750000D+03  .497092134454D-08 -.794350238962D+00
     .562891364098D-05  .692540651653D-02  .602565705776D-05  .515376101112D+04
     .496800000000D+06  .132247805595D-06  .453821598440D+00 -.149011611938D-07
     .937868989116D+00  .247468750000D+03  .390074940210D+00 -.842392231875D-08
     .376087094108D-09  .100000000000D+01  .221100000000D+04  .000000000000D+00
     .240000000000D+01  .000000000000D+00  .698491930962D-08  .560000000000D+02
     .489600000000D+06  .400000000000D+01
20 22  5 27 18  0  0.0  .513907056302D-03 -.102318153949D-11  .000000000000D+00
     .112000000000D+03  .175000000000D+02  .484770192624D-08  .251064221855D+01
     .875443220139D-06  .478293781634D-02  .940449535847D-05  .515358141327D+04
     .496800000000D+06 -.558793544769D-07 -.278941386891D+01  .484287738800D-07
     .943446332109D+00  .191750000000D+03 -.312115606399D+01 -.808212236712D-08
     .373229832235D-09  .100000000000D+01  .221100000000D+04  .000000000000D+00
     .240000000000D+01  .000000000000D+00 -.838190317154D-08  .112000000000D+03
     .489600000000D+06  .400000000000D+01
17 22  5 27 18  0  0.0  .617844052613D-03  .454747350886D-11  .000000000000D+00
     .141000000000D+03 -.640937500000D+02  .445625704956D-08 -.264722284858D+01
    -.312179327011D-05  .135156242177D-01  .260956585407D-05  .515355558968D+04
     .496800000000D+06  .128522515297D-06  .161897020305D+01  .217929482460D-06
     .978495315515D+00  .334718750000D+03 -.149312122553D+01 -.805104964425D-08
    -.109647424398D-09  .100000000000D+01  .221100000000D+04  .000000000000D+00
     .240000000000D+01  .000000000000D+00 -.111758708954D-07  .141000000000D+03
     .489600000000D+06  .400000000000D+01
14 22  5 27 18  0  0.0 -.109954737127D-03 -.125055521494D-11  .000000000000D+00
     .100000000000D+02  .106906250000D+03  .478091342995D-08  .154351689253D+00
     .562705099583D-05  .192458007950D-02  .518001616001D-05  .515366228104D+04
     .496800000000D+06  .577419996262D-07  .547738503370D+00 -.279396772385D-07
     .952903487455D+00  .275968750000D+03  .311404117947D+01 -.834677624816D-08
     .415731602604D-09  .100000000000D+01  .221100000000D+04  .000000000000D+00
     .240000000000D+01  .000000000000D+00 -.791624188423D-08  .522000000000D+03
     .489600000000D+06  .400000000000D+01
11 22  5 27 18  0  0.0 -.201705843210D-04  .386535248253D-11  .000000000000D+00
     .109000000000D+03 -.841875000000D+02  .426803492364D-08 -.263641255253D+01
    -.440143048763D-05  .398344243877D-03  .110622495413D-04  .515358463860D+04
     .496800000000D+06 -.335276126862D-07  .265928065387D+01  .130385160446D-07
     .963182634526D+00  .165843750000D+03  .281352275301D+01 -.783854079240D-08
    -.892894335490D-10  .100000000000D+01  .221100000000D+04  .000000000000D+00
     .240000000000D+01  .000000000000D+00 -.838190317154D-08  .365000000000D+03
     .489600000000D+06  .400000000000D+01
18 22  5 27 18  0  0.0  .158675946295D-03 -.103455022327D-10  .000000000000D+00
     .790000000000D+02 -.890937500000D+02  .420517516242D-08  .181783143819D+01
    -.442378222942D-05  .232371524908D-02  .100210309029D-04  .515373885918D+04
     .496800000000D+06  .100582838058D-06  .262420338787D+01  .614672899246D-07
     .971797214889D+00  .192750000000D+03  .301346394207D+01 -.786318467606D-08
    -.113576159474D-09  .100000000000D+01  .221100000000D+04  .000000000000D+00
     .240000000000D+01  .000000000000D+00 -.838190317154D-08  .847000000000D+03
     .489600000000D+06  .400000000000D+01
29 22  5 27 17 59 44.0 -.518043059856D-03 -.386535248253D-11  .000000000000D+00
     .100000000000D+01 -.541562500000D+02  .448768693017D-08 -.251480049883D+01
    -.266544520855D-05  .218021415640D-02  .239908695221D-05  .515369955444D+04
     .496784000000D+06  .931322574615D-08  .163221348255D+01  .465661287308D-07
     .980559795749D+00  .346531250000D+03  .227612983074D+01 -.821462788651D-08
    -.135005623526D-09  .100000000000D+01  .221100000000D+04  .000000000000D+00
     .240000000000D+01  .000000000000D+00 -.102445483208D-07  .100000000000D+01
     .496620000000D+06  .400000000000D+01
